start=new Date('2023-05-30T00:00:00.000Z').valueOf();
sats=[{"RCS_SIZE":"LARGE","REF_FRAME":"TEME","PERIOD":"95.592","SITE":"AFETR","TIME_SYSTEM":"UTC","MEAN_ELEMENT_THEORY":"SGP4","RA_OF_ASC_NODE":"157.8151","CLASSIFICATION_TYPE":"U","CENTER_NAME":"EARTH","OBJECT_ID":"2020-088Y","DECAY_DATE":null,"PERIAPSIS":"546.432","MEAN_ANOMALY":"282.2140","NORAD_CAT_ID":"47144","ELEMENT_SET_NO":"999","COUNTRY_CODE":"US","TLE_LINE1":"1 47144U 20088Y   23149.75993159  .00002175  00000-0  16488-3 0  9990","EPOCH":"2023-05-29T18:14:18.089376","ARG_OF_PERICENTER":"77.8975","SEMIMAJOR_AXIS":"6925.349","GP_ID":"232777573","MEAN_MOTION":"15.06399801","ECCENTRICITY":"0.00011300","BSTAR":"0.00016488000000","FILE":"3920354","LAUNCH_DATE":"2020-11-25","EPHEMERIS_TYPE":"0","INCLINATION":"53.0531","OBJECT_TYPE":"PAYLOAD","OBJECT_NAME":"STARLINK-1857","APOAPSIS":"547.997","REV_AT_EPOCH":"13914","MEAN_MOTION_DDOT":"0.0000000000000","MEAN_MOTION_DOT":"0.00002175","TLE_LINE2":"2 47144  53.0531 157.8151 0001130  77.8975 282.2140 15.06399801139144"},{"OBJECT_ID":"2020-088AB","DECAY_DATE":null,"CLASSIFICATION_TYPE":"U","CENTER_NAME":"EARTH","RA_OF_ASC_NODE":"177.7079","SITE":"AFETR","MEAN_ELEMENT_THEORY":"SGP4","TIME_SYSTEM":"UTC","REF_FRAME":"TEME","PERIOD":"95.593","RCS_SIZE":"LARGE","TLE_LINE1":"1 47147U 20088AB  23149.78387953 -.00000080  00000-0  13522-4 0  9996","COUNTRY_CODE":"US","ELEMENT_SET_NO":"999","NORAD_CAT_ID":"47147","MEAN_ANOMALY":"265.1418","PERIAPSIS":"546.336","BSTAR":"0.00001352200000","ECCENTRICITY":"0.00013090","GP_ID":"232777812","MEAN_MOTION":"15.06390685","SEMIMAJOR_AXIS":"6925.377","ARG_OF_PERICENTER":"94.9720","EPOCH":"2023-05-29T18:48:47.191392","MEAN_MOTION_DOT":"-0.00000080","TLE_LINE2":"2 47147  53.0535 177.7079 0001309  94.9720 265.1418 15.06390685138875","MEAN_MOTION_DDOT":"0.0000000000000","APOAPSIS":"548.149","REV_AT_EPOCH":"13887","OBJECT_NAME":"STARLINK-1860","OBJECT_TYPE":"PAYLOAD","INCLINATION":"53.0535","LAUNCH_DATE":"2020-11-25","EPHEMERIS_TYPE":"0","FILE":"3920354"},{"OBJECT_TYPE":"PAYLOAD","INCLINATION":"53.0543","LAUNCH_DATE":"2020-11-25","EPHEMERIS_TYPE":"0","FILE":"3920354","MEAN_MOTION_DOT":"-0.00000519","TLE_LINE2":"2 47148  53.0543 167.8203 0000933  84.1828 275.9267 15.06401028139007","MEAN_MOTION_DDOT":"0.0000000000000","APOAPSIS":"547.857","REV_AT_EPOCH":"13900","OBJECT_NAME":"STARLINK-1861","GP_ID":"232776072","MEAN_MOTION":"15.06401028","SEMIMAJOR_AXIS":"6925.345","ARG_OF_PERICENTER":"84.1828","EPOCH":"2023-05-29T18:12:57.161088","BSTAR":"-0.00001594500000","ECCENTRICITY":"0.00009330","ELEMENT_SET_NO":"999","NORAD_CAT_ID":"47148","MEAN_ANOMALY":"275.9267","PERIAPSIS":"546.564","TLE_LINE1":"1 47148U 20088AC  23149.75899492 -.00000519  00000-0 -15945-4 0  9999","COUNTRY_CODE":"US","SITE":"AFETR","TIME_SYSTEM":"UTC","MEAN_ELEMENT_THEORY":"SGP4","REF_FRAME":"TEME","PERIOD":"95.592","RCS_SIZE":"LARGE","OBJECT_ID":"2020-088AC","DECAY_DATE":null,"CENTER_NAME":"EARTH","CLASSIFICATION_TYPE":"U","RA_OF_ASC_NODE":"167.8203"},{"OBJECT_NAME":"STARLINK-1862","TLE_LINE2":"2 47149  53.0521 177.6868 0000981  86.0577 274.0525 15.06410745139604","MEAN_MOTION_DOT":"-0.00000715","APOAPSIS":"547.860","MEAN_MOTION_DDOT":"0.0000000000000","REV_AT_EPOCH":"13960","EPHEMERIS_TYPE":"0","LAUNCH_DATE":"2020-11-25","FILE":"3920354","INCLINATION":"53.0521","OBJECT_TYPE":"PAYLOAD","ECCENTRICITY":"0.00009810","BSTAR":"-0.00002908800000","ARG_OF_PERICENTER":"86.0577","SEMIMAJOR_AXIS":"6925.316","EPOCH":"2023-05-29T18:54:05.055264","MEAN_MOTION":"15.06410745","GP_ID":"232776822","COUNTRY_CODE":"US","TLE_LINE1":"1 47149U 20088AD  23149.78755851 -.00000715  00000-0 -29088-4 0  9994","MEAN_ANOMALY":"274.0525","PERIAPSIS":"546.501","ELEMENT_SET_NO":"999","NORAD_CAT_ID":"47149","CLASSIFICATION_TYPE":"U","CENTER_NAME":"EARTH","RA_OF_ASC_NODE":"177.6868","DECAY_DATE":null,"OBJECT_ID":"2020-088AD","RCS_SIZE":"LARGE","MEAN_ELEMENT_THEORY":"SGP4","TIME_SYSTEM":"UTC","SITE":"AFETR","PERIOD":"95.591","REF_FRAME":"TEME"},{"PERIAPSIS":"546.474","MEAN_ANOMALY":"274.5358","NORAD_CAT_ID":"47150","ELEMENT_SET_NO":"999","TLE_LINE1":"1 47150U 20088AE  23149.78111045  .00001085  00000-0  91730-4 0  9999","COUNTRY_CODE":"US","RCS_SIZE":"LARGE","PERIOD":"95.592","REF_FRAME":"TEME","MEAN_ELEMENT_THEORY":"SGP4","TIME_SYSTEM":"UTC","SITE":"AFETR","RA_OF_ASC_NODE":"167.7197","CLASSIFICATION_TYPE":"U","CENTER_NAME":"EARTH","DECAY_DATE":null,"OBJECT_ID":"2020-088AE","FILE":"3920354","EPHEMERIS_TYPE":"0","LAUNCH_DATE":"2020-11-25","OBJECT_TYPE":"PAYLOAD","INCLINATION":"53.0523","OBJECT_NAME":"STARLINK-1863","APOAPSIS":"547.935","REV_AT_EPOCH":"13901","MEAN_MOTION_DDOT":"0.0000000000000","TLE_LINE2":"2 47150  53.0523 167.7197 0001055  85.5752 274.5358 15.06402879139018","MEAN_MOTION_DOT":"0.00001085","EPOCH":"2023-05-29T18:44:47.942880","ARG_OF_PERICENTER":"85.5752","SEMIMAJOR_AXIS":"6925.340","MEAN_MOTION":"15.06402879","GP_ID":"232777074","ECCENTRICITY":"0.00010550","BSTAR":"0.00009173000000"},{"ECCENTRICITY":"0.00012400","BSTAR":"-0.00006322600000","MEAN_MOTION":"15.06398585","GP_ID":"232777313","ARG_OF_PERICENTER":"103.6551","SEMIMAJOR_AXIS":"6925.353","EPOCH":"2023-05-29T18:43:28.307136","TLE_LINE2":"2 47151  53.0532 177.7234 0001240 103.6551 256.4576 15.06398585138868","MEAN_MOTION_DOT":"-0.00001223","APOAPSIS":"548.077","MEAN_MOTION_DDOT":"0.0000000000000","REV_AT_EPOCH":"13886","OBJECT_NAME":"STARLINK-1864","OBJECT_TYPE":"PAYLOAD","INCLINATION":"53.0532","EPHEMERIS_TYPE":"0","LAUNCH_DATE":"2020-11-25","FILE":"3920354","DECAY_DATE":null,"OBJECT_ID":"2020-088AF","CLASSIFICATION_TYPE":"U","CENTER_NAME":"EARTH","RA_OF_ASC_NODE":"177.7234","TIME_SYSTEM":"UTC","MEAN_ELEMENT_THEORY":"SGP4","SITE":"AFETR","PERIOD":"95.592","REF_FRAME":"TEME","RCS_SIZE":"LARGE","COUNTRY_CODE":"US","TLE_LINE1":"1 47151U 20088AF  23149.78018874 -.00001223  00000-0 -63226-4 0  9991","ELEMENT_SET_NO":"999","NORAD_CAT_ID":"47151","MEAN_ANOMALY":"256.4576","PERIAPSIS":"546.359"},{"REF_FRAME":"TEME","PERIOD":"95.591","SITE":"AFETR","TIME_SYSTEM":"UTC","MEAN_ELEMENT_THEORY":"SGP4","RCS_SIZE":"LARGE","OBJECT_ID":"2020-088AG","DECAY_DATE":null,"RA_OF_ASC_NODE":"179.5740","CENTER_NAME":"EARTH","CLASSIFICATION_TYPE":"U","NORAD_CAT_ID":"47152","ELEMENT_SET_NO":"999","PERIAPSIS":"546.581","MEAN_ANOMALY":"279.1291","TLE_LINE1":"1 47152U 20088AG  23149.36641032  .00001830  00000-0  14165-3 0  9993","COUNTRY_CODE":"US","GP_ID":"232743193","MEAN_MOTION":"15.06415146","EPOCH":"2023-05-29T08:47:37.851648","SEMIMAJOR_AXIS":"6925.302","ARG_OF_PERICENTER":"80.9793","BSTAR":"0.00014165000000","ECCENTRICITY":"0.00008460","OBJECT_TYPE":"PAYLOAD","INCLINATION":"53.0531","FILE":"3920065","LAUNCH_DATE":"2020-11-25","EPHEMERIS_TYPE":"0","REV_AT_EPOCH":"13880","APOAPSIS":"547.753","MEAN_MOTION_DDOT":"0.0000000000000","MEAN_MOTION_DOT":"0.00001830","TLE_LINE2":"2 47152  53.0531 179.5740 0000846  80.9793 279.1291 15.06415146138809","OBJECT_NAME":"STARLINK-1866"},{"MEAN_MOTION_DOT":"0.00000923","TLE_LINE2":"2 47153  53.0531 182.7445 0001052  76.9288 283.1819 15.06402810138807","REV_AT_EPOCH":"13880","APOAPSIS":"547.933","MEAN_MOTION_DDOT":"0.0000000000000","OBJECT_NAME":"STARLINK-1867","OBJECT_TYPE":"PAYLOAD","INCLINATION":"53.0531","LAUNCH_DATE":"2020-11-25","EPHEMERIS_TYPE":"0","FILE":"3920354","BSTAR":"0.00008086800000","ECCENTRICITY":"0.00010520","GP_ID":"232776323","MEAN_MOTION":"15.06402810","SEMIMAJOR_AXIS":"6925.340","ARG_OF_PERICENTER":"76.9288","EPOCH":"2023-05-29T19:54:30.073536","TLE_LINE1":"1 47153U 20088AH  23149.82951474  .00000923  00000-0  80868-4 0  9995","COUNTRY_CODE":"US","ELEMENT_SET_NO":"999","NORAD_CAT_ID":"47153","MEAN_ANOMALY":"283.1819","PERIAPSIS":"546.476","OBJECT_ID":"2020-088AH","DECAY_DATE":null,"CLASSIFICATION_TYPE":"U","CENTER_NAME":"EARTH","RA_OF_ASC_NODE":"182.7445","SITE":"AFETR","MEAN_ELEMENT_THEORY":"SGP4","TIME_SYSTEM":"UTC","REF_FRAME":"TEME","PERIOD":"95.592","RCS_SIZE":"LARGE"},{"COUNTRY_CODE":"US","TLE_LINE1":"1 47154U 20088AJ  23149.70286838 -.00002404  00000-0 -10689-4 0  9990","PERIAPSIS":"338.674","MEAN_ANOMALY":"229.6821","NORAD_CAT_ID":"47154","ELEMENT_SET_NO":"999","RA_OF_ASC_NODE":"146.2911","CENTER_NAME":"EARTH","CLASSIFICATION_TYPE":"U","DECAY_DATE":null,"OBJECT_ID":"2020-088AJ","RCS_SIZE":"LARGE","PERIOD":"91.329","REF_FRAME":"TEME","MEAN_ELEMENT_THEORY":"SGP4","TIME_SYSTEM":"UTC","SITE":"AFETR","OBJECT_NAME":"STARLINK-1868","APOAPSIS":"340.804","MEAN_MOTION_DDOT":"0.0000000000000","REV_AT_EPOCH":"13930","TLE_LINE2":"2 47154  53.0477 146.2911 0001585 130.4336 229.6821 15.76721384139302","MEAN_MOTION_DOT":"-0.00002404","FILE":"3920354","EPHEMERIS_TYPE":"0","LAUNCH_DATE":"2020-11-25","INCLINATION":"53.0477","OBJECT_TYPE":"PAYLOAD","ECCENTRICITY":"0.00015850","BSTAR":"-0.00001068900000","EPOCH":"2023-05-29T16:52:07.828032","ARG_OF_PERICENTER":"130.4336","SEMIMAJOR_AXIS":"6717.874","MEAN_MOTION":"15.76721384","GP_ID":"232777574"},{"COUNTRY_CODE":"US","TLE_LINE1":"1 47155U 20088AK  23149.83823851  .00000370  00000-0  43734-4 0  9992","NORAD_CAT_ID":"47155","ELEMENT_SET_NO":"999","PERIAPSIS":"546.010","MEAN_ANOMALY":"294.7212","DECAY_DATE":null,"OBJECT_ID":"2020-088AK","RA_OF_ASC_NODE":"187.4645","CLASSIFICATION_TYPE":"U","CENTER_NAME":"EARTH","PERIOD":"95.592","REF_FRAME":"TEME","TIME_SYSTEM":"UTC","MEAN_ELEMENT_THEORY":"SGP4","SITE":"AFETR","RCS_SIZE":"LARGE","APOAPSIS":"548.374","REV_AT_EPOCH":"13873","MEAN_MOTION_DDOT":"0.0000000000000","TLE_LINE2":"2 47155  53.0535 187.4645 0001707  65.3954 294.7212 15.06407035138737","MEAN_MOTION_DOT":"0.00000370","OBJECT_NAME":"STARLINK-1869","OBJECT_TYPE":"PAYLOAD","INCLINATION":"53.0535","FILE":"3920354","EPHEMERIS_TYPE":"0","LAUNCH_DATE":"2020-11-25","BSTAR":"0.00004373400000","ECCENTRICITY":"0.00017070","MEAN_MOTION":"15.06407035","GP_ID":"232777813","EPOCH":"2023-05-29T20:07:03.807264","ARG_OF_PERICENTER":"65.3954","SEMIMAJOR_AXIS":"6925.327"}];
